start=new Date('2022-03-18T00:00:00.000Z').valueOf();
sats=[{"CENTER_NAME":"EARTH","OBJECT_TYPE":"PAYLOAD","MEAN_ELEMENT_THEORY":"SGP4","CLASSIFICATION_TYPE":"U","OBJECT_ID":"2021-115L","DECAY_DATE":null,"INCLINATION":"53.2172","MEAN_MOTION":"15.08875443","ELEMENT_SET_NO":"999","REF_FRAME":"TEME","TLE_LINE1":"1 49734U 21115L   22076.91667824 -.00049136  00000-0 -30873-2 0  9995","TIME_SYSTEM":"UTC","RCS_SIZE":"LARGE","TLE_LINE2":"2 49734  53.2172 190.8570 0001906  42.8601  99.4275 15.08875443  3606","LAUNCH_DATE":"2021-12-02","ARG_OF_PERICENTER":"42.8601","COUNTRY_CODE":"US","RA_OF_ASC_NODE":"190.8570","FILE":"3363151","MEAN_ANOMALY":"99.4275","ECCENTRICITY":"0.00019060","BSTAR":"-0.00308730000000","PERIAPSIS":"538.319","SITE":"AFETR","MEAN_MOTION_DDOT":"0.0000000000000","OBJECT_NAME":"STARLINK-3238","PERIOD":"95.435","EPHEMERIS_TYPE":"0","NORAD_CAT_ID":"49734","SEMIMAJOR_AXIS":"6917.772","APOAPSIS":"540.956","MEAN_MOTION_DOT":"-0.00049136","EPOCH":"2022-03-17T22:00:00.999936","GP_ID":"198993663","REV_AT_EPOCH":"360"},{"TLE_LINE2":"2 49735  53.2107 200.8888 0002219  46.8033 180.5418 15.08838181  3609","LAUNCH_DATE":"2021-12-02","RCS_SIZE":"LARGE","TIME_SYSTEM":"UTC","ELEMENT_SET_NO":"999","REF_FRAME":"TEME","TLE_LINE1":"1 49735U 21115M   22076.91667824 -.00007009  00000-0 -42270-3 0  9994","INCLINATION":"53.2107","MEAN_MOTION":"15.08838181","DECAY_DATE":null,"OBJECT_ID":"2021-115M","MEAN_ELEMENT_THEORY":"SGP4","CLASSIFICATION_TYPE":"U","OBJECT_TYPE":"PAYLOAD","CENTER_NAME":"EARTH","REV_AT_EPOCH":"360","GP_ID":"198993913","MEAN_MOTION_DOT":"-0.00007009","EPOCH":"2022-03-17T22:00:00.999936","APOAPSIS":"541.286","NORAD_CAT_ID":"49735","SEMIMAJOR_AXIS":"6917.886","EPHEMERIS_TYPE":"0","PERIOD":"95.438","MEAN_MOTION_DDOT":"0.0000000000000","OBJECT_NAME":"STARLINK-3113","SITE":"AFETR","ECCENTRICITY":"0.00022190","BSTAR":"-0.00042270000000","PERIAPSIS":"538.216","FILE":"3363151","MEAN_ANOMALY":"180.5418","COUNTRY_CODE":"US","RA_OF_ASC_NODE":"200.8888","ARG_OF_PERICENTER":"46.8033"},{"LAUNCH_DATE":"2021-12-02","TLE_LINE2":"2 49736  53.2165 190.8581 0001856  34.4043  67.8442 15.08862708  3608","TIME_SYSTEM":"UTC","RCS_SIZE":"LARGE","MEAN_MOTION":"15.08862708","INCLINATION":"53.2165","TLE_LINE1":"1 49736U 21115N   22076.91667824 -.00016046  00000-0 -99165-3 0  9991","REF_FRAME":"TEME","ELEMENT_SET_NO":"999","DECAY_DATE":null,"OBJECT_ID":"2021-115N","CLASSIFICATION_TYPE":"U","MEAN_ELEMENT_THEORY":"SGP4","OBJECT_TYPE":"PAYLOAD","CENTER_NAME":"EARTH","REV_AT_EPOCH":"360","EPOCH":"2022-03-17T22:00:00.999936","MEAN_MOTION_DOT":"-0.00016046","GP_ID":"198994164","SEMIMAJOR_AXIS":"6917.811","NORAD_CAT_ID":"49736","APOAPSIS":"540.960","PERIOD":"95.436","EPHEMERIS_TYPE":"0","OBJECT_NAME":"STARLINK-3148","MEAN_MOTION_DDOT":"0.0000000000000","SITE":"AFETR","PERIAPSIS":"538.392","BSTAR":"-0.00099165000000","ECCENTRICITY":"0.00018560","COUNTRY_CODE":"US","ARG_OF_PERICENTER":"34.4043","RA_OF_ASC_NODE":"190.8581","MEAN_ANOMALY":"67.8442","FILE":"3363151"},{"MEAN_ELEMENT_THEORY":"SGP4","CLASSIFICATION_TYPE":"U","DECAY_DATE":null,"OBJECT_ID":"2021-115P","CENTER_NAME":"EARTH","OBJECT_TYPE":"PAYLOAD","RCS_SIZE":"LARGE","TIME_SYSTEM":"UTC","TLE_LINE2":"2 49737  53.2183 190.8594 0001890  40.7828  81.5615 15.08843551  3602","LAUNCH_DATE":"2021-12-02","ELEMENT_SET_NO":"999","REF_FRAME":"TEME","TLE_LINE1":"1 49737U 21115P   22076.91667824 -.00016693  00000-0 -10330-2 0  9996","MEAN_MOTION":"15.08843551","INCLINATION":"53.2183","SITE":"AFETR","MEAN_MOTION_DDOT":"0.0000000000000","OBJECT_NAME":"STARLINK-3225","FILE":"3363151","MEAN_ANOMALY":"81.5615","ARG_OF_PERICENTER":"40.7828","COUNTRY_CODE":"US","RA_OF_ASC_NODE":"190.8594","ECCENTRICITY":"0.00018900","BSTAR":"-0.00103300000000","PERIAPSIS":"538.427","GP_ID":"198994915","MEAN_MOTION_DOT":"-0.00016693","EPOCH":"2022-03-17T22:00:00.999936","REV_AT_EPOCH":"360","EPHEMERIS_TYPE":"0","PERIOD":"95.437","APOAPSIS":"541.042","SEMIMAJOR_AXIS":"6917.870","NORAD_CAT_ID":"49737"},{"NORAD_CAT_ID":"49738","SEMIMAJOR_AXIS":"6918.037","APOAPSIS":"541.274","PERIOD":"95.441","EPHEMERIS_TYPE":"0","REV_AT_EPOCH":"360","EPOCH":"2022-03-17T22:00:00.999936","MEAN_MOTION_DOT":"0.00037568","GP_ID":"198993163","PERIAPSIS":"538.530","BSTAR":"0.00236930000000","ECCENTRICITY":"0.00019830","RA_OF_ASC_NODE":"190.8660","COUNTRY_CODE":"US","ARG_OF_PERICENTER":"31.4568","MEAN_ANOMALY":"50.9254","FILE":"3363151","OBJECT_NAME":"STARLINK-3143","MEAN_MOTION_DDOT":"0.0000000000000","SITE":"AFETR","MEAN_MOTION":"15.08788796","INCLINATION":"53.2171","TLE_LINE1":"1 49738U 21115Q   22076.91667824  .00037568  00000-0  23693-2 0  9995","REF_FRAME":"TEME","ELEMENT_SET_NO":"999","LAUNCH_DATE":"2021-12-02","TLE_LINE2":"2 49738  53.2171 190.8660 0001983  31.4568  50.9254 15.08788796  3603","TIME_SYSTEM":"UTC","RCS_SIZE":"LARGE","OBJECT_TYPE":"PAYLOAD","CENTER_NAME":"EARTH","DECAY_DATE":null,"OBJECT_ID":"2021-115Q","CLASSIFICATION_TYPE":"U","MEAN_ELEMENT_THEORY":"SGP4"},{"BSTAR":"-0.00241700000000","ECCENTRICITY":"0.00020620","PERIAPSIS":"538.249","COUNTRY_CODE":"US","ARG_OF_PERICENTER":"41.8398","RA_OF_ASC_NODE":"200.9051","FILE":"3363151","MEAN_ANOMALY":"145.4684","MEAN_MOTION_DDOT":"0.0000000000000","OBJECT_NAME":"STARLINK-3155","SITE":"AFETR","SEMIMAJOR_AXIS":"6917.810","NORAD_CAT_ID":"49739","APOAPSIS":"541.102","PERIOD":"95.436","EPHEMERIS_TYPE":"0","REV_AT_EPOCH":"360","MEAN_MOTION_DOT":"-0.00038574","EPOCH":"2022-03-17T22:00:00.999936","GP_ID":"198993413","OBJECT_TYPE":"PAYLOAD","CENTER_NAME":"EARTH","OBJECT_ID":"2021-115R","DECAY_DATE":null,"MEAN_ELEMENT_THEORY":"SGP4","CLASSIFICATION_TYPE":"U","INCLINATION":"53.2089","MEAN_MOTION":"15.08862870","ELEMENT_SET_NO":"999","REF_FRAME":"TEME","TLE_LINE1":"1 49739U 21115R   22076.91667824 -.00038574  00000-0 -24170-2 0  9997","TLE_LINE2":"2 49739  53.2089 200.9051 0002062  41.8398 145.4684 15.08862870  3607","LAUNCH_DATE":"2021-12-02","TIME_SYSTEM":"UTC","RCS_SIZE":"LARGE"},{"EPHEMERIS_TYPE":"0","PERIOD":"95.434","APOAPSIS":"540.956","SEMIMAJOR_AXIS":"6917.715","NORAD_CAT_ID":"49740","GP_ID":"198994665","EPOCH":"2022-03-17T22:00:00.999936","MEAN_MOTION_DOT":"-0.00070001","REV_AT_EPOCH":"360","MEAN_ANOMALY":"345.1064","FILE":"3363151","ARG_OF_PERICENTER":"37.1425","COUNTRY_CODE":"US","RA_OF_ASC_NODE":"190.8820","PERIAPSIS":"538.204","BSTAR":"-0.00441660000000","ECCENTRICITY":"0.00019890","SITE":"AFETR","OBJECT_NAME":"STARLINK-3226","MEAN_MOTION_DDOT":"0.0000000000000","TLE_LINE1":"1 49740U 21115S   22076.91667824 -.00070001  00000-0 -44166-2 0  9997","REF_FRAME":"TEME","ELEMENT_SET_NO":"999","MEAN_MOTION":"15.08894241","INCLINATION":"53.2188","RCS_SIZE":"LARGE","TIME_SYSTEM":"UTC","LAUNCH_DATE":"2021-12-02","TLE_LINE2":"2 49740  53.2188 190.8820 0001989  37.1425 345.1064 15.08894241  3604","CENTER_NAME":"EARTH","OBJECT_TYPE":"PAYLOAD","CLASSIFICATION_TYPE":"U","MEAN_ELEMENT_THEORY":"SGP4","DECAY_DATE":null,"OBJECT_ID":"2021-115S"},{"MEAN_MOTION":"15.08866563","INCLINATION":"53.2181","TLE_LINE1":"1 49741U 21115T   22076.91667824 -.00017695  00000-0 -10956-2 0  9998","REF_FRAME":"TEME","ELEMENT_SET_NO":"999","TIME_SYSTEM":"UTC","RCS_SIZE":"LARGE","LAUNCH_DATE":"2021-12-02","TLE_LINE2":"2 49741  53.2181 190.8794 0001917  49.4137  12.8420 15.08866563  3605","CENTER_NAME":"EARTH","OBJECT_TYPE":"PAYLOAD","CLASSIFICATION_TYPE":"U","MEAN_ELEMENT_THEORY":"SGP4","DECAY_DATE":null,"OBJECT_ID":"2021-115T","PERIOD":"95.436","EPHEMERIS_TYPE":"0","SEMIMAJOR_AXIS":"6917.799","NORAD_CAT_ID":"49741","APOAPSIS":"540.990","EPOCH":"2022-03-17T22:00:00.999936","MEAN_MOTION_DOT":"-0.00017695","GP_ID":"198994415","REV_AT_EPOCH":"360","COUNTRY_CODE":"US","ARG_OF_PERICENTER":"49.4137","RA_OF_ASC_NODE":"190.8794","MEAN_ANOMALY":"12.8420","FILE":"3363151","PERIAPSIS":"538.338","BSTAR":"-0.00109560000000","ECCENTRICITY":"0.00019170","SITE":"AFETR","OBJECT_NAME":"STARLINK-3244","MEAN_MOTION_DDOT":"0.0000000000000"},{"LAUNCH_DATE":"2021-12-02","TLE_LINE2":"2 49742  53.2147 190.8917 0002159  41.6618 300.6406 15.08856057  3599","TIME_SYSTEM":"UTC","RCS_SIZE":"LARGE","MEAN_MOTION":"15.08856057","INCLINATION":"53.2147","TLE_LINE1":"1 49742U 21115U   22076.91667824 -.00020830  00000-0 -12938-2 0  9996","REF_FRAME":"TEME","ELEMENT_SET_NO":"999","OBJECT_ID":"2021-115U","DECAY_DATE":null,"CLASSIFICATION_TYPE":"U","MEAN_ELEMENT_THEORY":"SGP4","OBJECT_TYPE":"PAYLOAD","CENTER_NAME":"EARTH","REV_AT_EPOCH":"359","EPOCH":"2022-03-17T22:00:00.999936","MEAN_MOTION_DOT":"-0.00020830","GP_ID":"198993664","SEMIMAJOR_AXIS":"6917.831","NORAD_CAT_ID":"49742","APOAPSIS":"541.190","PERIOD":"95.437","EPHEMERIS_TYPE":"0","OBJECT_NAME":"STARLINK-3202","MEAN_MOTION_DDOT":"0.0000000000000","SITE":"AFETR","PERIAPSIS":"538.203","BSTAR":"-0.00129380000000","ECCENTRICITY":"0.00021590","RA_OF_ASC_NODE":"190.8917","COUNTRY_CODE":"US","ARG_OF_PERICENTER":"41.6618","MEAN_ANOMALY":"300.6406","FILE":"3363151"},{"COUNTRY_CODE":"US","ARG_OF_PERICENTER":"46.8852","RA_OF_ASC_NODE":"190.8814","MEAN_ANOMALY":"355.4385","FILE":"3363151","PERIAPSIS":"538.412","BSTAR":"-0.00116360000000","ECCENTRICITY":"0.00018790","SITE":"AFETR","OBJECT_NAME":"STARLINK-3239","MEAN_MOTION_DDOT":"0.0000000000000","PERIOD":"95.437","EPHEMERIS_TYPE":"0","SEMIMAJOR_AXIS":"6917.847","NORAD_CAT_ID":"49743","APOAPSIS":"541.012","EPOCH":"2022-03-17T22:00:00.999936","MEAN_MOTION_DOT":"-0.00018765","GP_ID":"198993914","REV_AT_EPOCH":"360","CENTER_NAME":"EARTH","OBJECT_TYPE":"PAYLOAD","CLASSIFICATION_TYPE":"U","MEAN_ELEMENT_THEORY":"SGP4","DECAY_DATE":null,"OBJECT_ID":"2021-115V","MEAN_MOTION":"15.08850948","INCLINATION":"53.2187","TLE_LINE1":"1 49743U 21115V   22076.91667824 -.00018765  00000-0 -11636-2 0  9995","REF_FRAME":"TEME","ELEMENT_SET_NO":"999","TIME_SYSTEM":"UTC","RCS_SIZE":"LARGE","LAUNCH_DATE":"2021-12-02","TLE_LINE2":"2 49743  53.2187 190.8814 0001879  46.8852 355.4385 15.08850948  3604"}];
